{
  "type": "FeatureCollection",
  "features": [
    {
      "type": "Feature",
      "properties": {
        "norad_id": 30298,
        "name": "FENGYUN 1C DEB",
        "group": "fengyun-1c-debris",
        "lat": -77.66477729910429,
        "lon": 115.9252088962818,
        "alt_km": 855.0205827250693,
        "timestamp": "2025-12-04T15:47:54.373497+00:00",
        "meta_object_name": "FENGYUN 1C DEB",
        "meta_object_id": "1999-025ZK",
        "meta_epoch": "2025-12-04T04:37:55.147296",
        "meta_mean_motion": 14.19824379,
        "meta_eccentricity": 0.00492876,
        "meta_inclination": 99.0026,
        "meta_ra_of_asc_node": 68.9874,
        "meta_arg_of_pericenter": 151.7133,
        "meta_mean_anomaly": 269.4826,
        "meta_ephemeris_type": 0,
        "meta_classification_type": "U",
        "meta_norad_cat_id": 30298,
        "meta_element_set_no": 999,
        "meta_rev_at_epoch": 96713,
        "meta_bstar": 0.0044444398,
        "meta_mean_motion_dot": 9.503e-05,
        "meta_mean_motion_ddot": 0,
        "tle_line1": "1 30298U 99025ZK  25338.19299939  .00009503  00000+0  44444-2 0  9997",
        "tle_line2": "2 30298  99.0026  68.9874 0049287 151.7133 269.4826 14.19824379967134"
      },
      "geometry": {
        "type": "Point",
        "coordinates": [
          115.9252088962818,
          -77.66477729910429
        ]
      }
    },
    {
      "type": "Feature",
      "properties": {
        "norad_id": 30299,
        "name": "FENGYUN 1C DEB",
        "group": "fengyun-1c-debris",
        "lat": 47.030894552808334,
        "lon": -119.26577708122726,
        "alt_km": 876.9443718372149,
        "timestamp": "2025-12-04T15:47:54.373508+00:00",
        "meta_object_name": "FENGYUN 1C DEB",
        "meta_object_id": "1999-025ZL",
        "meta_epoch": "2025-12-03T03:29:51.060768",
        "meta_mean_motion": 14.07676668,
        "meta_eccentricity": 0.01035948,
        "meta_inclination": 99.0951,
        "meta_ra_of_asc_node": 49.3093,
        "meta_arg_of_pericenter": 35.1038,
        "meta_mean_anomaly": 355.0365,
        "meta_ephemeris_type": 0,
        "meta_classification_type": "U",
        "meta_norad_cat_id": 30299,
        "meta_element_set_no": 999,
        "meta_rev_at_epoch": 96155,
        "meta_bstar": 0.0018541969,
        "meta_mean_motion_dot": 3.248e-05,
        "meta_mean_motion_ddot": 0,
        "tle_line1": "1 30299U 99025ZL  25337.14572987  .00003248  00000+0  18542-2 0  9999",
        "tle_line2": "2 30299  99.0951  49.3093 0103594  35.1038 355.0365 14.07676668961552"
      },
      "geometry": {
        "type": "Point",
        "coordinates": [
          -119.26577708122726,
          47.030894552808334
        ]
      }
    },
    {
      "type": "Feature",
      "properties": {
        "norad_id": 30300,
        "name": "FENGYUN 1C DEB",
        "group": "fengyun-1c-debris",
        "lat": 67.67597324173053,
        "lon": -109.44267371016497,
        "alt_km": 843.3891473355561,
        "timestamp": "2025-12-04T15:47:54.373518+00:00",
        "meta_object_name": "FENGYUN 1C DEB",
        "meta_object_id": "1999-025ZM",
        "meta_epoch": "2025-12-03T04:14:43.233792",
        "meta_mean_motion": 14.26675343,
        "meta_eccentricity": 0.00743476,
        "meta_inclination": 99.0438,
        "meta_ra_of_asc_node": 46.2048,
        "meta_arg_of_pericenter": 322.3475,
        "meta_mean_anomaly": 103.5211,
        "meta_ephemeris_type": 0,
        "meta_classification_type": "U",
        "meta_norad_cat_id": 30300,
        "meta_element_set_no": 999,
        "meta_rev_at_epoch": 96848,
        "meta_bstar": 0.0027472287,
        "meta_mean_motion_dot": 6.797e-05,
        "meta_mean_motion_ddot": 0,
        "tle_line1": "1 30300U 99025ZM  25337.17688928  .00006797  00000+0  27472-2 0  9992",
        "tle_line2": "2 30300  99.0438  46.2048 0074347 322.3475 103.5211 14.26675343968485"
      },
      "geometry": {
        "type": "Point",
        "coordinates": [
          -109.44267371016497,
          67.67597324173053
        ]
      }
    },
    {
      "type": "Feature",
      "properties": {
        "norad_id": 30301,
        "name": "FENGYUN 1C DEB",
        "group": "fengyun-1c-debris",
        "lat": -52.32926813474263,
        "lon": -61.812456871038094,
        "alt_km": 715.8160243618604,
        "timestamp": "2025-12-04T15:47:54.373529+00:00",
        "meta_object_name": "FENGYUN 1C DEB",
        "meta_object_id": "1999-025ZN",
        "meta_epoch": "2025-12-04T03:24:12.331296",
        "meta_mean_motion": 14.52537348,
        "meta_eccentricity": 0.00685717,
        "meta_inclination": 98.6353,
        "meta_ra_of_asc_node": 129.0078,
        "meta_arg_of_pericenter": 315.1482,
        "meta_mean_anomaly": 99.6439,
        "meta_ephemeris_type": 0,
        "meta_classification_type": "U",
        "meta_norad_cat_id": 30301,
        "meta_element_set_no": 999,
        "meta_rev_at_epoch": 97092,
        "meta_bstar": 0.0082714831,
        "meta_mean_motion_dot": 0.00034975,
        "meta_mean_motion_ddot": 0,
        "tle_line1": "1 30301U 99025ZN  25338.14180939  .00034975  00000+0  82715-2 0  9990",
        "tle_line2": "2 30301  98.6353 129.0078 0068571 315.1482  99.6439 14.52537348970920"
      },
      "geometry": {
        "type": "Point",
        "coordinates": [
          -61.812456871038094,
          -52.32926813474263
        ]
      }
    },
    {
      "type": "Feature",
      "properties": {
        "norad_id": 30302,
        "name": "FENGYUN 1C DEB",
        "group": "fengyun-1c-debris",
        "lat": 60.72242785338172,
        "lon": -128.85337234919828,
        "alt_km": 829.3622607977668,
        "timestamp": "2025-12-04T15:47:54.373539+00:00",
        "meta_object_name": "FENGYUN 1C DEB",
        "meta_object_id": "1999-025ZP",
        "meta_epoch": "2025-11-29T23:18:50.228352",
        "meta_mean_motion": 14.12670881,
        "meta_eccentricity": 0.01037294,
        "meta_inclination": 98.5513,
        "meta_ra_of_asc_node": 242.2381,
        "meta_arg_of_pericenter": 154.5235,
        "meta_mean_anomaly": 206.1103,
        "meta_ephemeris_type": 0,
        "meta_classification_type": "U",
        "meta_norad_cat_id": 30302,
        "meta_element_set_no": 999,
        "meta_rev_at_epoch": 95863,
        "meta_bstar": 0.0022401364,
        "meta_mean_motion_dot": 4.33e-05,
        "meta_mean_motion_ddot": 0,
        "tle_line1": "1 30302U 99025ZP  25333.97141468  .00004330  00000+0  22401-2 0  9999",
        "tle_line2": "2 30302  98.5513 242.2381 0103729 154.5235 206.1103 14.12670881958632"
      },
      "geometry": {
        "type": "Point",
        "coordinates": [
          -128.85337234919828,
          60.72242785338172
        ]
      }
    },
    {
      "type": "Feature",
      "properties": {
        "norad_id": 30303,
        "name": "FENGYUN 1C DEB",
        "group": "fengyun-1c-debris",
        "lat": -9.787752236354494,
        "lon": 57.2982435491328,
        "alt_km": 771.268704206007,
        "timestamp": "2025-12-04T15:47:54.373550+00:00",
        "meta_object_name": "FENGYUN 1C DEB",
        "meta_object_id": "1999-025ZQ",
        "meta_epoch": "2025-12-03T04:28:21.478944",
        "meta_mean_motion": 14.25648864,
        "meta_eccentricity": 0.00755379,
        "meta_inclination": 99.0208,
        "meta_ra_of_asc_node": 54.214,
        "meta_arg_of_pericenter": 310.1852,
        "meta_mean_anomaly": 49.273,
        "meta_ephemeris_type": 0,
        "meta_classification_type": "U",
        "meta_norad_cat_id": 30303,
        "meta_element_set_no": 999,
        "meta_rev_at_epoch": 96899,
        "meta_bstar": 0.0030476083,
        "meta_mean_motion_dot": 7.402e-05,
        "meta_mean_motion_ddot": 0,
        "tle_line1": "1 30303U 99025ZQ  25337.18635971  .00007402  00000+0  30476-2 0  9998",
        "tle_line2": "2 30303  99.0208  54.2140 0075537 310.1852  49.2730 14.25648864968996"
      },
      "geometry": {
        "type": "Point",
        "coordinates": [
          57.2982435491328,
          -9.787752236354494
        ]
      }
    },
    {
      "type": "Feature",
      "properties": {
        "norad_id": 30304,
        "name": "FENGYUN 1C DEB",
        "group": "fengyun-1c-debris",
        "lat": 80.32232161431324,
        "lon": -17.927013913049265,
        "alt_km": 781.3289336754406,
        "timestamp": "2025-12-04T15:47:54.373560+00:00",
        "meta_object_name": "FENGYUN 1C DEB",
        "meta_object_id": "1999-025ZR",
        "meta_epoch": "2025-12-03T03:46:06.212640",
        "meta_mean_motion": 14.15411735,
        "meta_eccentricity": 0.00744917,
        "meta_inclination": 99.035,
        "meta_ra_of_asc_node": 49.4644,
        "meta_arg_of_pericenter": 76.3538,
        "meta_mean_anomaly": 284.5916,
        "meta_ephemeris_type": 0,
        "meta_classification_type": "U",
        "meta_norad_cat_id": 30304,
        "meta_element_set_no": 999,
        "meta_rev_at_epoch": 96683,
        "meta_bstar": 0.0018472443,
        "meta_mean_motion_dot": 3.657e-05,
        "meta_mean_motion_ddot": 0,
        "tle_line1": "1 30304U 99025ZR  25337.15701635  .00003657  00000+0  18472-2 0  9997",
        "tle_line2": "2 30304  99.0350  49.4644 0074491  76.3538 284.5916 14.15411735966835"
      },
      "geometry": {
        "type": "Point",
        "coordinates": [
          -17.927013913049265,
          80.32232161431324
        ]
      }
    }
  ]
}